[{"OBJECT_NAME":"CE-SAT-IE","OBJECT_ID":"2024-032A","EPOCH":"2026-03-09T20:59:24.263232","MEAN_MOTION":14.68188526,"ECCENTRICITY":0.00036701,"INCLINATION":98.0095,"RA_OF_ASC_NODE":125.7334,"ARG_OF_PERICENTER":55.1646,"MEAN_ANOMALY":304.9904,"EPHEMERIS_TYPE":0,"CLASSIFICATION_TYPE":"U","NORAD_CAT_ID":58987,"ELEMENT_SET_NO":999,"REV_AT_EPOCH":11026,"BSTAR":0.00011964159,"MEAN_MOTION_DOT":6.41e-6,"MEAN_MOTION_DDOT":0},{"OBJECT_NAME":"IRIDIUM 33 DEB","OBJECT_ID":"1997-051CL","EPOCH":"2026-03-09T21:15:11.635776","MEAN_MOTION":14.66627177,"ECCENTRICITY":0.00123068,"INCLINATION":86.3887,"RA_OF_ASC_NODE":13.0606,"ARG_OF_PERICENTER":85.7312,"MEAN_ANOMALY":335.7805,"EPHEMERIS_TYPE":0,"CLASSIFICATION_TYPE":"U","NORAD_CAT_ID":34077,"ELEMENT_SET_NO":999,"REV_AT_EPOCH":89609,"BSTAR":0.0018990332,"MEAN_MOTION_DOT":0.0001059,"MEAN_MOTION_DDOT":0}]
